{
  "type": "FeatureCollection",
  "features": [
    {
      "type": "Feature",
      "properties": {
        "name": "Зелёная зона",
        "description": "до 10 минут пешком",
        "source": "openrouteservice isochrone (walking, 600s)",
        "restaurant": {
          "lat": 57.9183,
          "lon": 59.9816
        }
      },
      "geometry": {
        "type": "Polygon",
        "coordinates": [
          [
            [59.99564, 57.9183],
            [59.99376, 57.92205],
            [59.98862, 57.9248],
            [59.9816, 57.9258],
            [59.97458, 57.9248],
            [59.96944, 57.92205],
            [59.96756, 57.9183],
            [59.96944, 57.91455],
            [59.97458, 57.9118],
            [59.9816, 57.9108],
            [59.98862, 57.9118],
            [59.99376, 57.91455],
            [59.99564, 57.9183]
          ]
        ]
      }
    }
  ]
}
